{
"type": "FeatureCollection",
"name": "moselsteig_etappen",
"crs": { "type": "name", "properties": { "name": "urn:ogc:def:crs:EPSG::25832" } },
"features": [
{ "type": "Feature", "properties": { "name": "Etappe 12: Ürzig – Traben-Trarbach", "km": 15.059, "darstell": "finished", "datum": "2026-04-03", "link": "https://www.visitmosel.de/wandern/tour/moselsteig-etappe-12-uerzig-traben-trarbach", "height": 295 }, "geometry": { "type": "MultiLineString", "coordinates": [ [ [ 356827.1386, 5538523.0768, 200.8 ], [ 356833.444000000017695, 5538541.5987, 201.7 ], [ 356836.0908, 5538557.437, 202.7 ], [ 356835.2304, 5538576.261599999852479, 203.5 ], [ 356833.129000000015367, 5538586.219100000336766, 203.7 ], [ 356854.884100000024773, 5538594.98340000025928, 207.2 ], [ 356877.194299999973737, 5538605.735399999655783, 210.1 ], [ 356891.902799999981653, 5538616.579199999570847, 211.4 ], [ 356911.522899999981746, 5538636.7484, 212.3 ], [ 356931.211699999985285, 5538656.80449999962002, 213.7 ], [ 356957.792399999976624, 5538685.13190000038594, 217.8 ], [ 356981.850099999981467, 5538707.6305, 219.0 ], [ 356991.027599999972153, 5538712.837000000290573, 220.1 ], [ 357003.5085, 5538718.177899999544024, 222.1 ], [ 357013.134299999976065, 5538721.370000000111759, 223.8 ], [ 357022.822999999974854, 5538724.226599999703467, 225.4 ], [ 357031.977200000023004, 5538725.873800000175834, 226.7 ], [ 357040.824000000022352, 5538726.75040000025183, 227.5 ], [ 357045.136899999983143, 5538727.080400000326335, 227.9 ], [ 357046.1081000000122, 5538739.292100000195205, 225.3 ], [ 357053.592899999988731, 5538740.2051, 226.0594 ], [ 357097.493399999977555, 5538737.47719999961555, 230.0112 ], [ 357131.871900000027381, 5538735.448400000110269, 232.0393 ], [ 357155.1691, 5538734.827600000426173, 233.8832 ], [ 357201.238000000012107, 5538732.710199999623001, 239.6106 ], [ 357232.194000000017695, 5538742.232200000435114, 243.322 ], [ 357256.281299999973271, 5538747.042100000195205, 245.9304 ], [ 357292.232599999988452, 5538750.2012, 247.7195 ], [ 357342.737299999978859, 5538769.216099999845028, 255.4215 ], [ 357390.104500000015832, 5538780.860999999567866, 260.665 ], [ 357442.553499999979977, 5538786.697300000116229, 265.0323 ], [ 357510.2376, 5538793.575500000268221, 270.5351 ], [ 357573.729799999971874, 5538804.682199999690056, 273.7889 ], [ 357626.1214, 5538811.078099999576807, 274.7194 ], [ 357678.5222, 5538825.929399999789894, 277.2857 ], [ 357735.713500000012573, 5538840.208999999798834, 283.7186 ], [ 357804.486299999989569, 5538847.618200000375509, 289.9023 ], [ 357851.552099999971688, 5538853.3788, 291.3498 ], [ 357881.71840000001248, 5538860.255300000309944, 296.9516 ], [ 357899.8578, 5538857.215599999763072, 299.5539 ], [ 357936.7927, 5538886.719499999657273, 305.9634 ], [ 357948.391300000017509, 5538842.579300000332296, 305.5018 ], [ 357956.34220000001369, 5538825.9035, 305.5018 ], [ 357967.71999999997206, 5538822.153199999593198, 306.3673 ], [ 358004.7698, 5538831.629300000146031, 317.1291 ], [ 358038.917000000015832, 5538831.72620000038296, 329.0111 ], [ 358053.3087, 5538819.886300000362098, 334.6047 ], [ 358069.259100000024773, 5538793.764999999664724, 340.4251 ], [ 358079.107499999983702, 5538775.592899999581277, 340.9614 ], [ 358092.3592, 5538769.457100000232458, 343.6429 ], [ 358099.512800000025891, 5538768.711500000208616, 345.5189 ], [ 358112.17180000001099, 5538780.836500000208616, 349.8746 ], [ 358126.982000000018161, 5538798.355899999849498, 351.6815 ], [ 358144.9535, 5538805.222900000400841, 351.8107 ], [ 358191.53090000001248, 5538814.225700000301003, 350.9475 ], [ 358230.9767, 5538813.9611, 347.6199 ], [ 358270.122800000011921, 5538802.357200000435114, 339.878 ], [ 358296.567099999985658, 5538795.984400000423193, 335.6218 ], [ 358320.142500000016298, 5538800.478799999691546, 335.6218 ], [ 358344.4622, 5538816.8574, 341.0236 ], [ 358368.821699999971315, 5538837.4627, 345.3927 ], [ 358388.90779999998631, 5538856.5121, 347.3765 ], [ 358397.141, 5538872.203499999828637, 347.7635 ], [ 358420.933399999979883, 5538871.3525, 347.7635 ], [ 358437.6139, 5538878.254599999636412, 348.0672 ], [ 358448.465199999976903, 5538889.871799999848008, 348.0672 ], [ 358485.217699999979232, 5538931.621600000187755, 345.1837 ], [ 358485.5234, 5538948.6349, 333.3971 ], [ 358530.4926, 5538956.57039999961853, 333.3971 ], [ 358572.580599999986589, 5538999.403800000436604, 323.5574 ], [ 358610.896699999982957, 5539040.668100000359118, 315.3012 ], [ 358599.297299999976531, 5538984.347699999809265, 315.3012 ], [ 358597.9373, 5538968.140999999828637, 312.1068 ], [ 358603.5244, 5538951.528599999845028, 308.7819 ], [ 358610.0871, 5538931.107900000177324, 304.7048 ], [ 358620.820799999986775, 5538889.328499999828637, 298.1159 ], [ 358636.3309, 5538846.421900000423193, 294.652 ], [ 358647.8322, 5538817.416000000201166, 291.1951 ], [ 358660.9389, 5538797.601700000464916, 289.1105 ], [ 358675.821999999985565, 5538785.305499999783933, 289.1105 ], [ 358693.892999999981839, 5538776.9304, 292.2619 ], [ 358717.102000000013504, 5538772.981200000271201, 292.8566 ], [ 358740.081300000019837, 5538768.4819, 293.2054 ], [ 358743.5207, 5538771.061300000175834, 294.4013 ], [ 358749.875699999975041, 5538772.6738, 294.4013 ], [ 358759.4401, 5538770.864299999549985, 293.0319 ], [ 358793.272999999986496, 5538772.6431, 292.7296 ], [ 358806.26659999997355, 5538770.2983, 292.6657 ], [ 358827.161299999977928, 5538765.631799999624491, 292.6657 ], [ 358851.4485, 5538756.314799999818206, 292.6692 ], [ 358870.5381, 5538753.92090000025928, 294.0358 ], [ 358886.42249999998603, 5538757.8416, 294.8151 ], [ 358906.5259, 5538774.889899999834597, 295.9137 ], [ 358921.564599999983329, 5538784.840400000102818, 295.9137 ], [ 358946.1912, 5538793.871100000105798, 294.5941 ], [ 359008.8883, 5538799.453099999576807, 293.4152 ], [ 359039.847699999983888, 5538801.086400000378489, 293.4152 ], [ 359085.07760000001872, 5538802.567300000227988, 290.6486 ], [ 359114.996999999973923, 5538800.112200000323355, 289.6622 ], [ 359145.7253, 5538798.41469999961555, 289.6622 ], [ 359179.5772, 5538792.74170000012964, 291.7843 ], [ 359216.081300000019837, 5538786.999099999666214, 291.9196 ], [ 359239.619799999985844, 5538781.931099999696016, 291.9196 ], [ 359275.890599999984261, 5538767.295099999755621, 292.868 ], [ 359309.686899999971502, 5538764.961799999698997, 296.0069 ], [ 359399.410900000017136, 5538723.448099999688566, 287.0787 ], [ 359507.543400000024121, 5538650.748599999584258, 277.0045 ], [ 359536.006999999983236, 5538620.0767, 274.5713 ], [ 359557.4032, 5538555.102699999697506, 267.2665 ], [ 359582.255799999984447, 5538534.426900000311434, 265.2312 ], [ 359750.0968, 5538448.7105, 264.2225 ], [ 359774.216200000024401, 5538427.387299999594688, 265.3152 ], [ 359867.888199999986682, 5538391.11849999986589, 269.3333 ], [ 359898.342899999988731, 5538378.863900000229478, 264.6029 ], [ 359878.869100000010803, 5538369.360399999655783, 261.0603 ], [ 359913.4609, 5538336.973000000230968, 247.8444 ], [ 359936.2596, 5538341.939899999648333, 248.9 ], [ 359960.584099999978207, 5538347.645700000226498, 250.5 ], [ 359996.136300000012852, 5538321.797500000335276, 251.8 ], [ 360032.3442, 5538310.060999999754131, 252.2 ], [ 360054.337600000028033, 5538297.917000000365078, 250.1 ], [ 360076.259399999980815, 5538285.775000000372529, 248.5 ], [ 360097.040900000021793, 5538276.666600000113249, 246.8 ], [ 360113.6214, 5538277.012699999846518, 246.5 ], [ 360130.598799999977928, 5538281.576000000350177, 247.9 ], [ 360144.624399999971502, 5538302.236100000329316, 252.2 ], [ 360152.6654, 5538313.485000000335276, 255.5 ], [ 360164.825100000016391, 5538317.61780000012368, 257.6 ], [ 360185.245500000019092, 5538319.421500000171363, 259.0 ], [ 360192.5746, 5538328.130300000309944, 259.8759 ], [ 360175.308200000028592, 5538345.490299999713898, 262.1764 ], [ 360170.1861, 5538413.1519, 269.1993 ], [ 360224.51569999998901, 5538460.907200000248849, 278.6 ], [ 360228.9755, 5538464.128399999812245, 280.1 ], [ 360234.4193, 5538458.312800000421703, 281.7 ], [ 360243.9191, 5538426.470499999821186, 283.9 ], [ 360252.0761, 5538411.9068, 284.8 ], [ 360256.257800000021234, 5538404.455400000326335, 285.3 ], [ 360275.4706, 5538395.722299999557436, 286.7 ], [ 360303.033300000010058, 5538396.338999999687076, 290.3 ], [ 360352.2449, 5538404.6244, 291.2 ], [ 360385.4569, 5538418.332999999634922, 292.1 ], [ 360404.897, 5538423.834300000220537, 291.0 ], [ 360437.103200000012293, 5538429.225700000301003, 288.4 ], [ 360469.309200000017881, 5538434.61739999987185, 287.3 ], [ 360496.570100000011735, 5538445.700299999676645, 288.7 ], [ 360523.902599999972153, 5538456.781600000336766, 292.4 ], [ 360543.611199999984819, 5538458.827600000426173, 294.6 ], [ 360591.690799999982119, 5538448.454900000244379, 296.1 ], [ 360616.944200000027195, 5538445.795800000429153, 297.9 ], [ 360653.479500000015832, 5538449.4073, 303.6 ], [ 360690.086399999971036, 5538453.017199999652803, 305.5 ], [ 360727.559799999988172, 5538459.6085, 303.4 ], [ 360765.030199999979232, 5538466.088899999856949, 299.7 ], [ 360781.918300000019372, 5538475.551400000229478, 298.7 ], [ 360788.250300000014249, 5538479.058199999853969, 298.4 ], [ 360801.243299999972805, 5538482.169499999843538, 296.2 ], [ 360810.730900000024121, 5538477.361999999731779, 293.5 ], [ 360821.695400000025984, 5538490.760900000110269, 293.1 ], [ 360829.079900000011548, 5538512.707600000314415, 294.7 ], [ 360827.224600000015926, 5538529.665500000119209, 298.4 ], [ 360808.650299999979325, 5538551.9523, 308.1 ], [ 360808.689699999988079, 5538581.098299999721348, 314.8 ], [ 360825.4497, 5538616.040199999697506, 319.4 ], [ 360842.2096, 5538650.981999999843538, 323.0 ], [ 360861.3517, 5538683.7484, 322.7 ], [ 360880.493599999987055, 5538716.5148, 320.3 ], [ 360891.525199999974575, 5538740.814399999566376, 320.0 ], [ 360902.559499999973923, 5538765.225200000219047, 320.5 ], [ 360927.2719, 5538777.71129999961704, 314.9 ], [ 360951.984, 5538790.197499999776483, 310.2 ], [ 360965.98499999998603, 5538810.081600000150502, 310.6 ], [ 360980.191799999971408, 5538846.202499999664724, 314.4 ], [ 360989.1297, 5538892.1387, 320.2 ], [ 361002.607399999978952, 5538925.052400000393391, 322.9 ], [ 361024.029099999985192, 5538951.7527, 324.6 ], [ 361034.592699999979232, 5538958.042500000447035, 324.9 ], [ 361045.499599999981001, 5538958.204800000414252, 324.9 ], [ 361046.2708, 5538957.517300000414252, 324.9 ], [ 361055.5793999999878, 5538948.5987, 324.7 ], [ 361059.67090000002645, 5538926.5768, 323.8 ], [ 361069.870799999975134, 5538913.296400000341237, 326.4 ], [ 361077.9178, 5538902.7418, 329.2 ], [ 361079.824499999987893, 5538879.441499999724329, 328.1 ], [ 361089.835399999981746, 5538867.167299999855459, 331.5 ], [ 361102.489899999985937, 5538854.490899999625981, 335.5 ], [ 361107.699499999987893, 5538828.546400000341237, 334.7 ], [ 361120.940699999977369, 5538805.286299999803305, 337.0 ], [ 361128.7976, 5538784.613099999725819, 338.0 ], [ 361141.84499999997206, 5538770.480399999767542, 340.8 ], [ 361145.90490000002319, 5538794.293499999679625, 343.0 ], [ 361142.5613, 5538817.5197, 344.1 ], [ 361148.2292, 5538836.952499999664724, 347.5 ], [ 361142.5613, 5538817.5197, 344.1 ], [ 361145.90490000002319, 5538794.293499999679625, 343.0 ], [ 361141.84499999997206, 5538770.480399999767542, 340.8 ], [ 361131.999599999981001, 5538753.158200000412762, 338.0 ], [ 361112.2281, 5538715.401100000366569, 333.6 ], [ 361103.033700000029057, 5538676.146300000138581, 331.3 ], [ 361103.291900000011083, 5538652.888799999840558, 329.5 ], [ 361106.929500000027474, 5538643.7835, 328.3 ], [ 361109.69, 5538636.814600000157952, 327.4 ], [ 361122.594700000016019, 5538625.466799999587238, 324.5 ], [ 361141.7684, 5538620.742700000293553, 321.2 ], [ 361174.906299999973271, 5538617.882000000216067, 318.7 ], [ 361210.846000000019558, 5538617.9527000002563, 316.5 ], [ 361246.7857, 5538618.023699999786913, 313.2 ], [ 361282.7254, 5538618.0949, 310.9 ], [ 361320.098300000012387, 5538612.566800000146031, 307.7 ], [ 361348.843700000026729, 5538611.823300000280142, 307.4 ], [ 361363.261, 5538614.565399999730289, 309.4 ], [ 361401.325399999972433, 5538613.581199999898672, 311.8 ], [ 361402.498199999972712, 5538614.552199999801815, 312.0 ], [ 361406.524099999980535, 5538617.6743, 312.9 ], [ 361414.719600000011269, 5538626.696000000461936, 315.0 ], [ 361451.916399999987334, 5538653.2127, 316.3 ], [ 361481.42239999998128, 5538673.587299999780953, 315.7 ], [ 361511.278700000024401, 5538710.306400000117719, 317.6 ], [ 361524.572600000014063, 5538736.217400000430644, 321.2 ], [ 361537.8663, 5538762.128499999642372, 325.8 ], [ 361555.142500000016298, 5538783.931800000369549, 329.6 ], [ 361572.418500000028871, 5538805.7352, 333.4 ], [ 361602.886799999978393, 5538832.871600000187755, 336.2 ], [ 361618.2733, 5538867.628600000403821, 343.7 ], [ 361627.813000000023749, 5538889.854399999603629, 348.8 ], [ 361647.7033, 5538907.363099999725819, 349.2 ], [ 361667.521699999982957, 5538924.873700000345707, 348.3 ], [ 361673.293500000028871, 5538937.295800000429153, 350.2 ], [ 361704.517400000011548, 5538957.6272, 344.2 ], [ 361735.669400000013411, 5538977.96059999987483, 336.1 ], [ 361748.004000000015367, 5539000.114400000311434, 337.8 ], [ 361760.26679999998305, 5539022.270200000144541, 340.1 ], [ 361777.911100000026636, 5539050.071999999694526, 343.0 ], [ 361795.5553, 5539077.8739, 345.6 ], [ 361816.244200000015553, 5539095.8076, 344.1 ], [ 361826.10989999998128, 5539097.333200000226498, 342.6 ], [ 361835.175800000026356, 5539090.091, 340.0 ], [ 361835.496900000027381, 5539088.6365, 339.6 ], [ 361843.0063, 5539059.963600000366569, 331.5 ], [ 361860.788799999980256, 5539031.916000000201166, 323.8 ], [ 361894.113699999987148, 5539025.27240000013262, 325.5 ], [ 361917.474800000025425, 5539035.572800000198185, 331.1 ], [ 361929.574199999973644, 5539034.704900000244379, 331.0 ], [ 361950.439000000013039, 5539014.921799999661744, 326.5 ], [ 361963.6714, 5539002.3438, 326.0 ], [ 361971.301199999987148, 5538995.027499999850988, 325.7 ], [ 361981.554500000027474, 5538986.5312, 326.0 ], [ 361983.435899999982212, 5538973.244400000199676, 324.0 ], [ 361969.8666, 5538950.454300000332296, 318.1 ], [ 361962.1005, 5538921.841300000436604, 312.8 ], [ 361960.0577, 5538884.292299999855459, 309.6 ], [ 361967.260599999979604, 5538874.317099999636412, 311.1 ], [ 361981.388199999986682, 5538854.707600000314415, 314.1 ], [ 362007.576, 5538827.111600000411272, 317.3 ], [ 362031.651300000026822, 5538792.672799999825656, 315.2 ], [ 362039.552099999971688, 5538765.213899999856949, 308.5 ], [ 362043.272, 5538748.097400000318885, 304.7 ], [ 362054.753199999977369, 5538737.1222, 305.4 ], [ 362063.886, 5538729.6562, 305.2 ], [ 362067.906100000021979, 5538726.994099999777973, 305.0 ], [ 362080.9068, 5538722.098500000312924, 304.1 ], [ 362082.4695, 5538721.502000000327826, 304.0 ], [ 362130.106399999989662, 5538727.396499999798834, 302.1 ], [ 362155.260499999974854, 5538734.870699999853969, 300.7 ], [ 362186.265499999979511, 5538757.880400000140071, 302.6 ], [ 362196.956799999985378, 5538766.394100000150502, 303.4 ], [ 362218.886899999983143, 5538785.187400000169873, 304.9 ], [ 362242.751700000022538, 5538809.4934, 304.2 ], [ 362265.9338, 5538835.151999999769032, 302.6 ], [ 362291.73499999998603, 5538873.425599999725819, 304.3 ], [ 362321.708600000012666, 5538875.88190000038594, 293.5 ], [ 362338.661399999982677, 5538885.236200000159442, 289.0 ], [ 362352.411299999977928, 5538895.562800000421703, 285.4 ], [ 362354.135499999974854, 5538912.428100000135601, 288.2 ], [ 362357.405199999979232, 5538928.029900000430644, 290.6 ], [ 362372.9485, 5538949.546500000171363, 290.8 ], [ 362383.5234, 5538967.519500000402331, 293.6 ], [ 362402.8918999999878, 5538984.376799999736249, 295.3 ], [ 362436.0476, 5539007.443900000303984, 299.9 ], [ 362448.0771, 5539015.033699999563396, 302.5 ], [ 362464.9144, 5539025.503899999894202, 306.1 ], [ 362474.3185, 5539025.818799999542534, 306.9 ], [ 362483.6778, 5539018.792700000107288, 306.7 ], [ 362493.0553, 5539004.089999999850988, 305.1 ], [ 362500.9007, 5538977.189600000157952, 300.5 ], [ 362508.6716, 5538950.1798, 297.1 ], [ 362516.581200000015087, 5538936.9611, 297.4 ], [ 362536.255599999974947, 5538918.212000000290573, 300.4 ], [ 362558.7452, 5538902.950799999758601, 301.4 ], [ 362581.334299999987707, 5538894.361999999731779, 302.7 ], [ 362593.201899999985471, 5538892.833999999798834, 303.2 ], [ 362601.2073, 5538891.738900000229478, 303.6 ], [ 362642.510699999984354, 5538899.691399999894202, 301.6 ], [ 362683.7453, 5538907.75719999987632, 300.2 ], [ 362711.943000000028405, 5538913.709699999541044, 300.8 ], [ 362741.317800000018906, 5538926.4183, 302.5 ], [ 362770.764099999971222, 5538939.125300000421703, 301.6 ], [ 362786.849500000011176, 5538951.0619, 300.5 ], [ 362790.57909999997355, 5538953.858799999579787, 300.2 ], [ 362808.043500000028871, 5538980.44469999987632, 301.5 ], [ 362825.507700000016484, 5539007.0307, 302.4 ], [ 362841.499399999971502, 5539026.534599999897182, 302.3 ], [ 362865.5196, 5539043.052000000141561, 298.7 ], [ 362889.465099999972153, 5539059.460099999792874, 296.3 ], [ 362905.927000000025146, 5539077.728500000201166, 297.6 ], [ 362910.948199999984354, 5539100.1831, 304.5 ], [ 362910.951, 5539100.294200000353158, 304.5 ], [ 362915.6828, 5539108.627999999560416, 306.6 ], [ 362923.907400000025518, 5539113.3125, 306.9 ], [ 362940.386799999978393, 5539115.449699999764562, 305.2 ], [ 362967.4129, 5539123.324699999764562, 307.9 ], [ 362977.2071, 5539122.073099999688566, 308.4 ], [ 363019.544999999983702, 5539097.629300000146031, 307.2 ], [ 363032.2169, 5539088.294599999673665, 306.2 ], [ 363058.344900000025518, 5539075.056200000457466, 304.6 ], [ 363084.1175, 5539061.93819999974221, 302.5 ], [ 363125.983, 5539061.0916, 301.3 ], [ 363146.166399999987334, 5539065.026100000366569, 299.7 ], [ 363178.8001, 5539084.6623, 300.5 ], [ 363211.430799999972805, 5539104.1875, 302.8 ], [ 363227.881, 5539107.9951, 302.1 ], [ 363242.8935, 5539106.054700000211596, 301.4 ], [ 363246.07929999998305, 5539104.415900000371039, 301.2 ], [ 363255.705399999977089, 5539099.386800000444055, 300.4 ], [ 363284.287100000015926, 5539069.84499999973923, 296.1 ], [ 363302.4559, 5539059.480700000189245, 295.5 ], [ 363333.761699999973644, 5539049.5603, 294.4 ], [ 363367.918899999989662, 5539044.5735, 293.7 ], [ 363392.506400000012945, 5539046.839200000278652, 293.6 ], [ 363440.481000000028871, 5539057.742600000463426, 291.5 ], [ 363450.816700000024866, 5539058.035500000230968, 290.6 ], [ 363452.82650000002468, 5539058.095599999651313, 290.5 ], [ 363481.3223, 5539058.927199999801815, 289.5 ], [ 363517.7648, 5539062.004099999554455, 289.2 ], [ 363565.2796, 5539057.67960000038147, 287.3 ], [ 363612.866099999984726, 5539053.353699999861419, 287.3 ], [ 363649.777200000011362, 5539060.758100000210106, 290.0 ], [ 363690.4459, 5539055.162700000219047, 289.8 ], [ 363731.183499999984633, 5539049.454699999652803, 289.5 ], [ 363776.434100000013132, 5539043.520999999716878, 290.8 ], [ 363821.756400000012945, 5539037.585799999535084, 293.0 ], [ 363867.076, 5539031.539900000207126, 293.5 ], [ 363912.398600000014994, 5539025.605499999597669, 294.5 ], [ 363933.2033, 5539022.963700000196695, 294.9 ], [ 363972.489200000010896, 5539013.73450000025332, 294.9 ], [ 364011.706300000019837, 5539004.61849999986589, 296.2 ], [ 364017.01569999998901, 5538999.032800000160933, 296.0 ], [ 364034.685, 5538980.229100000113249, 295.5 ], [ 364056.0541, 5538965.892699999734759, 296.2 ], [ 364087.086200000019744, 5538956.4287, 297.4 ], [ 364118.581499999971129, 5538956.742700000293553, 295.0 ], [ 364135.583099999988917, 5538951.194500000216067, 289.8 ], [ 364142.7009, 5538934.883500000461936, 285.3 ], [ 364158.1557, 5538939.052899999544024, 282.6 ], [ 364177.034900000027847, 5538953.815100000239909, 282.5 ], [ 364181.558100000023842, 5538962.488900000229478, 283.0 ], [ 364207.286199999973178, 5538953.160000000149012, 277.8 ], [ 364222.415900000021793, 5538947.3257, 274.9 ], [ 364224.758800000010524, 5538946.376400000415742, 274.5 ], [ 364231.6384, 5538943.3098, 273.1 ], [ 364239.1519, 5538939.782200000248849, 271.7 ], [ 364241.414700000023004, 5538938.501199999824166, 271.3 ], [ 364243.31339999998454, 5538937.00690000038594, 271.1 ], [ 364247.446799999976065, 5538933.119900000281632, 270.6 ], [ 364250.318099999974947, 5538930.377299999818206, 270.3 ], [ 364254.239200000010896, 5538926.6069, 270.1 ], [ 364245.0428, 5538917.495199999772012, 272.3 ], [ 364241.755300000018906, 5538915.131, 272.9 ], [ 364222.7648, 5538893.14049999974668, 272.9 ], [ 364217.1631, 5538873.035799999721348, 269.9 ], [ 364220.672100000025239, 5538861.488599999807775, 269.0 ], [ 364230.940300000016578, 5538853.441399999894202, 269.7 ], [ 364246.7671, 5538841.137299999594688, 270.8 ], [ 364272.7879, 5538820.676799999549985, 272.6 ], [ 364286.613599999982398, 5538814.3196, 273.7 ], [ 364309.441799999971408, 5538809.403099999763072, 276.3 ], [ 364329.921299999987241, 5538805.213700000196695, 278.1 ], [ 364366.318199999979697, 5538792.278300000354648, 280.7 ], [ 364385.3628, 5538785.233, 283.1 ], [ 364417.8259, 5538778.4046, 287.9 ], [ 364438.5994, 5538771.649600000120699, 291.2 ], [ 364453.9435, 5538762.918200000189245, 292.7 ], [ 364468.548300000024028, 5538747.642099999822676, 292.4 ], [ 364472.956, 5538740.411000000312924, 291.8 ], [ 364476.812800000014249, 5538734.083800000138581, 291.3 ], [ 364486.9216, 5538708.353199999779463, 289.5 ], [ 364497.102100000018254, 5538682.620799999684095, 292.5 ], [ 364502.676700000010896, 5538659.11849999986589, 293.5 ], [ 364504.417000000015832, 5538637.159199999645352, 292.4 ], [ 364499.909600000013597, 5538620.586400000378489, 288.9 ], [ 364504.576200000010431, 5538606.56290000025183, 288.3 ], [ 364522.375400000018999, 5538570.06969999987632, 288.6 ], [ 364540.1776, 5538533.687800000421703, 290.7 ], [ 364557.908400000014808, 5538497.307799999602139, 291.6 ], [ 364576.8369, 5538468.573400000110269, 293.0 ], [ 364591.575300000025891, 5538441.502399999648333, 293.1 ], [ 364599.325599999981932, 5538404.7072, 288.5 ], [ 364604.10989999998128, 5538375.4402, 285.3 ], [ 364603.231000000028871, 5538346.3163, 283.0 ], [ 364613.4692, 5538317.134200000204146, 286.9 ], [ 364615.4706, 5538285.6014, 287.9 ], [ 364615.5651, 5538275.142, 287.8 ], [ 364621.060300000011921, 5538262.6551, 289.1 ], [ 364625.468700000026729, 5538255.424100000411272, 289.9 ], [ 364636.117900000012014, 5538219.779400000348687, 290.4 ], [ 364646.767400000011548, 5538184.134800000116229, 289.8 ], [ 364657.416900000011083, 5538148.490199999883771, 288.3 ], [ 364654.976499999989755, 5538122.854299999773502, 284.2 ], [ 364658.9792, 5538108.068900000303984, 283.7 ], [ 364682.1175, 5538066.991899999789894, 287.4 ], [ 364684.584199999982957, 5538019.762000000104308, 287.3 ], [ 364689.03000000002794, 5538002.629300000146031, 288.9 ], [ 364696.620899999979883, 5537976.517799999564886, 291.6 ], [ 364701.1297, 5537964.723399999551475, 292.9 ], [ 364703.512999999977183, 5537953.983799999579787, 293.6 ], [ 364708.947999999974854, 5537947.616899999789894, 294.6 ], [ 364715.188000000023749, 5537947.5707, 295.2 ], [ 364723.074100000027101, 5537947.371799999848008, 295.8 ], [ 364724.508299999986775, 5537941.662100000306964, 296.0 ], [ 364727.7072, 5537929.122000000439584, 296.2 ], [ 364723.525000000023283, 5537931.118700000457466, 295.9 ], [ 364727.7072, 5537929.122000000439584, 296.2 ], [ 364729.3368, 5537922.6288, 296.3 ], [ 364712.3335, 5537914.046900000423193, 295.4 ], [ 364703.468, 5537906.706000000238419, 294.7 ], [ 364694.803200000023935, 5537878.890999999828637, 294.6 ], [ 364686.608599999977741, 5537861.187400000169873, 294.2 ], [ 364680.53279999998631, 5537839.3142, 293.6 ], [ 364669.302000000025146, 5537815.0126, 290.4 ], [ 364665.240600000019185, 5537790.5301, 287.2 ], [ 364647.53249999997206, 5537754.043800000101328, 278.0 ], [ 364642.630599999974947, 5537724.687699999660254, 276.1 ], [ 364641.6018, 5537692.4528, 277.9 ], [ 364635.879100000020117, 5537684.587600000202656, 275.5 ], [ 364629.408400000014808, 5537681.191100000403821, 271.9 ], [ 364626.9302, 5537676.803899999707937, 271.0 ], [ 364630.21999999997206, 5537670.713600000366569, 274.1 ], [ 364633.5492, 5537666.1798, 276.9 ], [ 364634.18660000001546, 5537654.483, 279.3 ], [ 364632.2878, 5537644.630199999548495, 279.9 ], [ 364632.801199999987148, 5537639.388799999840558, 280.9 ], [ 364630.8359, 5537609.847299999557436, 283.4 ], [ 364620.756999999983236, 5537591.41260000038892, 280.9 ], [ 364611.199399999983143, 5537579.417000000365078, 278.1 ], [ 364601.799600000027567, 5537556.6267, 276.7 ], [ 364594.195499999972526, 5537522.5554, 276.9 ], [ 364587.35989999998128, 5537499.0329, 275.3 ], [ 364586.081200000015087, 5537482.489699999801815, 275.5 ], [ 364588.718999999982771, 5537473.301, 277.4 ], [ 364590.454000000027008, 5537468.139999999664724, 278.4 ], [ 364590.942099999985658, 5537461.898, 279.0 ], [ 364585.632999999972526, 5537442.00800000037998, 276.9 ], [ 364581.716599999985192, 5537434.6535, 274.8 ], [ 364578.99810000002617, 5537423.597699999809265, 273.4 ], [ 364579.999599999981001, 5537412.114199999719858, 274.3 ], [ 364585.6717, 5537392.391900000162423, 278.2 ], [ 364598.166900000011083, 5537367.268899999558926, 285.5 ], [ 364597.31060000002617, 5537339.034400000236928, 286.5 ], [ 364588.667200000025332, 5537306.435499999672174, 285.4 ], [ 364580.023700000019744, 5537273.8366, 286.2 ], [ 364564.1285, 5537238.19469999987632, 285.8 ], [ 364547.999499999976251, 5537210.3459, 285.1 ], [ 364523.319399999978486, 5537184.8268, 283.3 ], [ 364502.065699999977369, 5537144.425699999555945, 281.9 ], [ 364500.8246, 5537132.220099999569356, 281.1 ], [ 364500.831699999980628, 5537129.661299999803305, 280.9 ], [ 364500.778500000014901, 5537121.8755, 280.2 ], [ 364503.461499999975786, 5537108.792100000195205, 279.3 ], [ 364509.368299999972805, 5537095.516099999658763, 279.1 ], [ 364519.929400000022724, 5537067.660699999891222, 278.3 ], [ 364534.516, 5537037.256199999712408, 278.7 ], [ 364539.831200000015087, 5537020.4353, 278.7 ], [ 364539.913500000024214, 5537000.965400000102818, 278.4 ], [ 364532.884100000024773, 5536952.7516, 277.7 ], [ 364532.0012, 5536914.950799999758601, 277.3 ], [ 364530.1975, 5536871.94469999987632, 276.2 ], [ 364530.1779, 5536871.166500000283122, 276.2 ], [ 364528.1129, 5536860.427899999544024, 275.8 ], [ 364520.2916, 5536849.05599999986589, 275.0 ], [ 364515.3678, 5536847.289200000464916, 274.5 ], [ 364511.3284, 5536843.608900000341237, 273.8 ], [ 364490.693399999989197, 5536807.864500000141561, 270.4 ], [ 364461.5513, 5536781.901999999769032, 262.6 ], [ 364445.452800000028219, 5536758.168700000271201, 257.2 ], [ 364429.351299999980256, 5536734.324300000444055, 252.8 ], [ 364419.098699999973178, 5536720.455400000326335, 249.1 ], [ 364409.90749999997206, 5536706.003399999812245, 245.3 ], [ 364401.3099, 5536680.9682, 239.9 ], [ 364398.3322, 5536665.358, 236.0 ], [ 364398.239699999976438, 5536644.668800000101328, 232.2 ], [ 364397.396300000022165, 5536634.010700000450015, 229.8 ], [ 364394.398700000019744, 5536623.295699999667704, 226.4 ], [ 364389.744799999985844, 5536609.507799999788404, 222.0 ], [ 364387.306800000020303, 5536598.222500000149012, 219.5 ], [ 364386.625300000014249, 5536568.426199999637902, 217.8 ], [ 364385.8394, 5536562.8838, 217.4 ], [ 364385.721399999980349, 5536558.214499999769032, 217.5 ], [ 364385.710199999972247, 5536552.096400000154972, 217.7 ], [ 364385.7402, 5536527.733, 218.5 ], [ 364385.6285, 5536477.898299999535084, 215.4 ], [ 364385.445200000016484, 5536428.065399999730289, 214.6 ], [ 364385.137800000025891, 5536396.034699999727309, 213.3 ], [ 364386.50199999997858, 5536381.8722, 212.7 ], [ 364392.848899999982677, 5536334.8778, 209.8 ], [ 364393.5075, 5536309.8311, 207.8 ], [ 364394.23499999998603, 5536284.671500000171363, 207.1 ], [ 364397.1496, 5536240.990000000223517, 207.3 ], [ 364402.50089999998454, 5536205.701500000432134, 207.3 ], [ 364407.852300000027753, 5536170.412999999709427, 207.2 ], [ 364413.272799999976996, 5536135.0115, 206.3 ], [ 364412.460399999981746, 5536119.902800000272691, 205.5 ], [ 364408.216100000019651, 5536079.739500000141561, 203.4 ], [ 364406.981199999980163, 5536033.7155, 201.7 ], [ 364406.1739, 5535987.569500000216067, 200.3 ], [ 364405.43829999997979, 5535941.421699999831617, 197.8 ], [ 364404.215900000010151, 5535904.408099999651313, 195.6 ], [ 364402.9963, 5535867.505800000391901, 193.8 ], [ 364405.528799999970943, 5535825.725200000219047, 191.7 ], [ 364408.0614, 5535783.944500000216067, 189.5 ], [ 364410.052099999971688, 5535757.64049999974668, 187.9 ], [ 364412.04570000001695, 5535731.447700000368059, 185.9 ], [ 364416.078900000022259, 5535689.406700000166893, 184.9 ], [ 364415.241099999984726, 5535678.9709, 183.5 ], [ 364418.284700000018347, 5535668.7708, 183.9 ], [ 364433.051199999987148, 5535631.130800000391901, 184.9 ], [ 364438.276200000022072, 5535619.206899999640882, 185.1 ], [ 364443.4448, 5535610.733, 185.5 ], [ 364448.03249999997206, 5535604.832399999722838, 185.5 ], [ 364449.490999999979977, 5535602.904500000178814, 185.5 ], [ 364453.326300000015181, 5535598.468999999575317, 185.4 ], [ 364462.988300000026356, 5535588.8805, 185.0 ], [ 364475.163500000024214, 5535579.339700000360608, 184.3 ], [ 364482.871900000027381, 5535574.8065, 183.9 ], [ 364486.658300000010058, 5535565.588899999856949, 182.3 ], [ 364499.8776, 5535546.232300000265241, 179.5 ], [ 364511.0956, 5535530.0411, 177.3 ], [ 364514.509299999976065, 5535520.276700000278652, 175.9 ], [ 364534.757700000016484, 5535480.83, 170.2 ], [ 364548.344800000020768, 5535456.12459999974817, 167.4 ], [ 364561.929200000013225, 5535431.308000000193715, 165.5 ], [ 364566.57650000002468, 5535422.068699999712408, 164.8 ], [ 364572.3702, 5535409.908099999651313, 163.9 ], [ 364573.257800000021234, 5535408.1058, 163.7 ], [ 364610.418799999984913, 5535410.282999999821186, 164.9 ], [ 364647.5109, 5535412.5735, 165.1 ], [ 364684.674600000027567, 5535414.862300000153482, 165.4 ], [ 364710.881600000022445, 5535412.421699999831617, 165.5 ], [ 364748.8651, 5535401.674800000153482, 164.3 ], [ 364778.663999999989755, 5535399.366499999538064, 164.0 ], [ 364802.016, 5535397.55449999962002, 164.4 ], [ 364808.462999999988824, 5535397.058299999684095, 164.5 ], [ 364795.3172, 5535359.566499999724329, 160.7 ], [ 364792.8859, 5535342.829900000244379, 158.9 ], [ 364789.0035, 5535296.984000000171363, 153.9 ], [ 364785.127800000016578, 5535254.2527, 149.4 ], [ 364785.478300000017043, 5535225.431699999608099, 146.6 ], [ 364783.192700000014156, 5535200.2369, 144.0 ], [ 364777.3493, 5535170.57079999987036, 140.8 ], [ 364772.6018, 5535150.2215, 138.3 ], [ 364772.773899999971036, 5535145.6562, 137.8 ], [ 364774.3823, 5535138.27350000012666, 136.8 ], [ 364773.5406, 5535130.5077, 135.7 ], [ 364770.141400000022259, 5535115.241600000299513, 133.6 ], [ 364771.67239999998128, 5535107.638500000350177, 132.5 ], [ 364771.3665, 5535101.19400000013411, 131.5 ], [ 364769.603599999973085, 5535093.8964, 130.4 ], [ 364768.7966, 5535090.3569, 129.9 ], [ 364765.5133, 5535082.541299999691546, 128.6 ], [ 364779.948800000012852, 5535062.932400000281632, 125.7 ], [ 364784.704900000011548, 5535055.136699999682605, 124.5 ], [ 364789.988399999972899, 5535048.329, 123.5 ], [ 364799.24800000002142, 5535042.644799999892712, 122.7 ], [ 364817.697600000014063, 5535037.062800000421703, 122.2 ], [ 364842.788400000019465, 5535032.9824, 122.2 ], [ 364867.879299999971408, 5535028.901999999769032, 122.9 ], [ 364889.48340000002645, 5535026.021999999880791, 123.6 ], [ 364915.06449999997858, 5535027.157999999821186, 123.5 ], [ 364925.774900000018533, 5535027.778400000184774, 123.2 ], [ 364930.368499999982305, 5535027.7741, 123.1 ], [ 364925.774900000018533, 5535027.778400000184774, 123.2 ], [ 364925.5121, 5535025.893899999558926, 123.0 ], [ 364921.676099999982398, 5534998.958200000226498, 119.7 ], [ 364917.651699999987613, 5534970.247399999760091, 116.3 ], [ 364913.35820000001695, 5534945.1031, 113.5 ], [ 364908.995799999975134, 5534920.0718, 111.0 ], [ 364904.739599999971688, 5534899.265100000426173, 109.5 ], [ 364901.98499999998603, 5534872.524600000120699, 107.7 ], [ 364896.629399999976158, 5534847.9633, 106.2 ], [ 364891.3455, 5534823.4002, 104.6 ], [ 364887.712699999974575, 5534810.253600000403821, 103.7 ] ] ] } }
]
}
